{
  "type": "FeatureCollection",
  "name": "Principales 10 ciudades de Colombia",
  "crs": {
    "type": "name",
    "properties": {
      "name": "urn:ogc:def:crs:OGC:1.3:CRS84"
    }
  },
  "features": [
    {
      "type": "Feature",
      "properties": {
        "Ciudad": "Bogotá",
        "Departamento": "Distrito Capital y Cundinamarca",
        "Poblacion_Estimada": "7.968.095",
        "Puesto_Poblacion": 1
      },
      "geometry": {
        "type": "Point",
        "coordinates": [
          -74.08369,
          4.65341
        ]
      }
    },
    {
      "type": "Feature",
      "properties": {
        "Ciudad": "Medellín",
        "Departamento": "Antioquia",
        "Poblacion_Estimada": "2.653.729",
        "Puesto_Poblacion": 2
      },
      "geometry": {
        "type": "Point",
        "coordinates": [
          -75.5822,
          6.24574
        ]
      }
    },
    {
      "type": "Feature",
      "properties": {
        "Ciudad": "Cali",
        "Departamento": "Valle del Cauca",
        "Poblacion_Estimada": "2.297.230",
        "Puesto_Poblacion": 3
      },
      "geometry": {
        "type": "Point",
        "coordinates": [
          -76.5333,
          3.45
        ]
      }
    },
    {
      "type": "Feature",
      "properties": {
        "Ciudad": "Barranquilla",
        "Departamento": "Atlántico",
        "Poblacion_Estimada": "1.327.209",
        "Puesto_Poblacion": 4
      },
      "geometry": {
        "type": "Point",
        "coordinates": [
          -74.78889,
          10.98778
        ]
      }
    },
    {
      "type": "Feature",
      "properties": {
        "Ciudad": "Cartagena de Indias",
        "Departamento": "Bolívar",
        "Poblacion_Estimada": "1.065.570",
        "Puesto_Poblacion": 5
      },
      "geometry": {
        "type": "Point",
        "coordinates": [
          -75.5383,
          10.419
        ]
      }
    },
    {
      "type": "Feature",
      "properties": {
        "Ciudad": "Cúcuta",
        "Departamento": "Norte de Santander",
        "Poblacion_Estimada": "795.608",
        "Puesto_Poblacion": 6
      },
      "geometry": {
        "type": "Point",
        "coordinates": [
          -72.5,
          7.9
        ]
      }
    },
    {
      "type": "Feature",
      "properties": {
        "Ciudad": "Soledad",
        "Departamento": "Atlántico",
        "Poblacion_Estimada": "692.799",
        "Puesto_Poblacion": 7
      },
      "geometry": {
        "type": "Point",
        "coordinates": [
          -74.7858,
          10.9097
        ]
      }
    },
    {
      "type": "Feature",
      "properties": {
        "Ciudad": "Bucaramanga",
        "Departamento": "Santander",
        "Poblacion_Estimada": "623.378",
        "Puesto_Poblacion": 8
      },
      "geometry": {
        "type": "Point",
        "coordinates": [
          -73.1333,
          7.1333
        ]
      }
    },
    {
      "type": "Feature",
      "properties": {
        "Ciudad": "Ibagué",
        "Departamento": "Tolima",
        "Poblacion_Estimada": "545.210",
        "Puesto_Poblacion": 9
      },
      "geometry": {
        "type": "Point",
        "coordinates": [
          -75.1839,
          4.4192
        ]
      }
    },
    {
      "type": "Feature",
      "properties": {
        "Ciudad": "Santa Marta",
        "Departamento": "Magdalena",
        "Poblacion_Estimada": "557.388",
        "Puesto_Poblacion": 10
      },
      "geometry": {
        "type": "Point",
        "coordinates": [
          -74.199,
          11.2408
        ]
      }
    }
  ]
}